ICEYE-X49               
1 62384U 24247H   26167.83864651  .00003084  00000+0  18607-3 0  9994
2 62384  44.9995 359.2547 0001180 268.0428  92.0315 15.12983520 82129
ICEYE-X50               
1 63255U 25052AX  26168.89393625  .00001255  00000+0  11912-3 0  9992
2 63255  97.6890  60.7760 0001696 156.7982 203.3316 14.95280397 68750
ICEYE-X51               
1 63257U 25052AZ  26168.85779094  .00003455  00000+0  27635-3 0  9991
2 63257  97.7556  63.9509 0001890  69.1817 290.9609 15.00870899 68901
ICEYE-X54               
1 64570U 25135AU  26168.89474120  .00001749  00000+0  16711-3 0  9995
2 64570  97.7729 283.3105 0001329 346.3803  13.7381 14.94541735 54004
ICEYE-X52               
1 64572U 25135AW  26168.94080228  .00001742  00000+0  17063-3 0  9999
2 64572  97.7747 283.1808 0001584  16.4691 343.6579 14.93562820 53995
ICEYE-X56               
1 64574U 25135AY  26168.90136369  .00001986  00000+0  18404-3 0  9995
2 64574  97.7749 283.8534 0001602   9.3645 350.7605 14.95612320 54031
ICEYE-X57               
1 64578U 25135BC  26168.93333141  .00003605  00000+0  28815-3 0  9996
2 64578  97.7952 285.3971 0001917  61.3629 298.7788 15.00867849 54131
ICEYE-X55               
1 64581U 25135BF  26168.90152098  .00001731  00000+0  16274-3 0  9991
2 64581  97.7747 283.6964 0002904   9.7312 350.3964 14.95211068 54020
ICEYE-X53               
1 64584U 25135BJ  26168.95782722  .00002720  00000+0  21837-3 0  9992
2 64584  97.7390 285.7385 0001124 153.4822 206.6460 15.00900078 54198
ICEYE-X58               
1 66751U 25276CP  26168.25321815  .00002471  00000+0  12571-3 0  9999
2 66751  97.4208 241.6989 0002885   6.8022 353.3251 15.17749680 30426
