{
 "generated_at": "2026-06-18T09:14:20Z",
 "sources": [
  {
   "name": "CelesTrak",
   "url": "https://celestrak.org/NORAD/elements/",
   "license": "frei verfügbar; Attribution. Ursprünglich USSPACECOM/Space-Track."
  },
  {
   "name": "GCAT (J. McDowell, planet4589.org)",
   "url": "https://planet4589.org/space/gcat/",
   "license": "CC-BY 4.0"
  }
 ],
 "satellites": [
  {
   "norad": 62384,
   "name": "ICEYE-X49",
   "intl": "2024-247H",
   "group": "sar",
   "gcat": {
    "class": "B",
    "category": "IMG-R",
    "owner": "ICEYE",
    "state": "FI"
   },
   "omm": {
    "OBJECT_NAME": "ICEYE-X49",
    "OBJECT_ID": "2024-247H",
    "EPOCH": "2026-06-16T20:07:39.058464",
    "MEAN_MOTION": 15.1298352,
    "ECCENTRICITY": 0.00011808,
    "INCLINATION": 44.9995,
    "RA_OF_ASC_NODE": 359.2547,
    "ARG_OF_PERICENTER": 268.0428,
    "MEAN_ANOMALY": 92.0315,
    "EPHEMERIS_TYPE": 0,
    "CLASSIFICATION_TYPE": "U",
    "NORAD_CAT_ID": 62384,
    "ELEMENT_SET_NO": 999,
    "REV_AT_EPOCH": 8212,
    "BSTAR": 0.00018607371,
    "MEAN_MOTION_DOT": 0.00003084,
    "MEAN_MOTION_DDOT": 0
   }
  },
  {
   "norad": 63255,
   "name": "ICEYE-X50",
   "intl": "2025-052AX",
   "group": "sar",
   "gcat": {
    "class": "B",
    "category": "IMG-R",
    "owner": "ICEYE",
    "state": "FI"
   },
   "omm": {
    "OBJECT_NAME": "ICEYE-X50",
    "OBJECT_ID": "2025-052AX",
    "EPOCH": "2026-06-17T21:27:16.092000",
    "MEAN_MOTION": 14.95280397,
    "ECCENTRICITY": 0.0001696,
    "INCLINATION": 97.689,
    "RA_OF_ASC_NODE": 60.776,
    "ARG_OF_PERICENTER": 156.7982,
    "MEAN_ANOMALY": 203.3316,
    "EPHEMERIS_TYPE": 0,
    "CLASSIFICATION_TYPE": "U",
    "NORAD_CAT_ID": 63255,
    "ELEMENT_SET_NO": 999,
    "REV_AT_EPOCH": 6875,
    "BSTAR": 0.00011912373,
    "MEAN_MOTION_DOT": 0.00001255,
    "MEAN_MOTION_DDOT": 0
   }
  },
  {
   "norad": 63257,
   "name": "ICEYE-X51",
   "intl": "2025-052AZ",
   "group": "sar",
   "gcat": {
    "class": "B",
    "category": "IMG-R",
    "owner": "ICEUS",
    "state": "US"
   },
   "omm": {
    "OBJECT_NAME": "ICEYE-X51",
    "OBJECT_ID": "2025-052AZ",
    "EPOCH": "2026-06-17T20:35:13.137216",
    "MEAN_MOTION": 15.00870899,
    "ECCENTRICITY": 0.00018902,
    "INCLINATION": 97.7556,
    "RA_OF_ASC_NODE": 63.9509,
    "ARG_OF_PERICENTER": 69.1817,
    "MEAN_ANOMALY": 290.9609,
    "EPHEMERIS_TYPE": 0,
    "CLASSIFICATION_TYPE": "U",
    "NORAD_CAT_ID": 63257,
    "ELEMENT_SET_NO": 999,
    "REV_AT_EPOCH": 6890,
    "BSTAR": 0.00027635317,
    "MEAN_MOTION_DOT": 0.00003455,
    "MEAN_MOTION_DDOT": 0
   }
  },
  {
   "norad": 64572,
   "name": "ICEYE-X52",
   "intl": "2025-135AW",
   "group": "sar",
   "gcat": {
    "class": "B",
    "category": "IMG-R",
    "owner": "ICEYE",
    "state": "FI"
   },
   "omm": {
    "OBJECT_NAME": "ICEYE-X52",
    "OBJECT_ID": "2025-135AW",
    "EPOCH": "2026-06-17T22:34:45.316992",
    "MEAN_MOTION": 14.9356282,
    "ECCENTRICITY": 0.00015842,
    "INCLINATION": 97.7747,
    "RA_OF_ASC_NODE": 283.1808,
    "ARG_OF_PERICENTER": 16.4691,
    "MEAN_ANOMALY": 343.6579,
    "EPHEMERIS_TYPE": 0,
    "CLASSIFICATION_TYPE": "U",
    "NORAD_CAT_ID": 64572,
    "ELEMENT_SET_NO": 999,
    "REV_AT_EPOCH": 5399,
    "BSTAR": 0.00017063396,
    "MEAN_MOTION_DOT": 0.00001742,
    "MEAN_MOTION_DDOT": 0
   }
  },
  {
   "norad": 64584,
   "name": "ICEYE-X53",
   "intl": "2025-135BJ",
   "group": "sar",
   "gcat": {
    "class": "B",
    "category": "IMG-R",
    "owner": "ICEYE",
    "state": "FI"
   },
   "omm": {
    "OBJECT_NAME": "ICEYE-X53",
    "OBJECT_ID": "2025-135BJ",
    "EPOCH": "2026-06-17T22:59:16.271808",
    "MEAN_MOTION": 15.00900078,
    "ECCENTRICITY": 0.00011241,
    "INCLINATION": 97.739,
    "RA_OF_ASC_NODE": 285.7385,
    "ARG_OF_PERICENTER": 153.4822,
    "MEAN_ANOMALY": 206.646,
    "EPHEMERIS_TYPE": 0,
    "CLASSIFICATION_TYPE": "U",
    "NORAD_CAT_ID": 64584,
    "ELEMENT_SET_NO": 999,
    "REV_AT_EPOCH": 5419,
    "BSTAR": 0.0002183701,
    "MEAN_MOTION_DOT": 0.0000272,
    "MEAN_MOTION_DDOT": 0
   }
  },
  {
   "norad": 64570,
   "name": "ICEYE-X54",
   "intl": "2025-135AU",
   "group": "sar",
   "gcat": {
    "class": "B",
    "category": "IMG-R",
    "owner": "ICEYE",
    "state": "FI"
   },
   "omm": {
    "OBJECT_NAME": "ICEYE-X54",
    "OBJECT_ID": "2025-135AU",
    "EPOCH": "2026-06-17T21:28:25.639680",
    "MEAN_MOTION": 14.94541735,
    "ECCENTRICITY": 0.00013296,
    "INCLINATION": 97.7729,
    "RA_OF_ASC_NODE": 283.3105,
    "ARG_OF_PERICENTER": 346.3803,
    "MEAN_ANOMALY": 13.7381,
    "EPHEMERIS_TYPE": 0,
    "CLASSIFICATION_TYPE": "U",
    "NORAD_CAT_ID": 64570,
    "ELEMENT_SET_NO": 999,
    "REV_AT_EPOCH": 5400,
    "BSTAR": 0.00016710616,
    "MEAN_MOTION_DOT": 0.00001749,
    "MEAN_MOTION_DDOT": 0
   }
  },
  {
   "norad": 64581,
   "name": "ICEYE-X55",
   "intl": "2025-135BF",
   "group": "sar",
   "gcat": {
    "class": "B",
    "category": "IMG-R",
    "owner": "ICEYE",
    "state": "FI"
   },
   "omm": {
    "OBJECT_NAME": "ICEYE-X55",
    "OBJECT_ID": "2025-135BF",
    "EPOCH": "2026-06-17T21:38:11.412672",
    "MEAN_MOTION": 14.95211068,
    "ECCENTRICITY": 0.00029043,
    "INCLINATION": 97.7747,
    "RA_OF_ASC_NODE": 283.6964,
    "ARG_OF_PERICENTER": 9.7312,
    "MEAN_ANOMALY": 350.3964,
    "EPHEMERIS_TYPE": 0,
    "CLASSIFICATION_TYPE": "U",
    "NORAD_CAT_ID": 64581,
    "ELEMENT_SET_NO": 999,
    "REV_AT_EPOCH": 5402,
    "BSTAR": 0.00016274148,
    "MEAN_MOTION_DOT": 0.00001731,
    "MEAN_MOTION_DDOT": 0
   }
  },
  {
   "norad": 64574,
   "name": "ICEYE-X56",
   "intl": "2025-135AY",
   "group": "sar",
   "gcat": {
    "class": "B",
    "category": "IMG-R",
    "owner": "ICEYE",
    "state": "FI"
   },
   "omm": {
    "OBJECT_NAME": "ICEYE-X56",
    "OBJECT_ID": "2025-135AY",
    "EPOCH": "2026-06-17T21:37:57.822816",
    "MEAN_MOTION": 14.9561232,
    "ECCENTRICITY": 0.00016022,
    "INCLINATION": 97.7749,
    "RA_OF_ASC_NODE": 283.8534,
    "ARG_OF_PERICENTER": 9.3645,
    "MEAN_ANOMALY": 350.7605,
    "EPHEMERIS_TYPE": 0,
    "CLASSIFICATION_TYPE": "U",
    "NORAD_CAT_ID": 64574,
    "ELEMENT_SET_NO": 999,
    "REV_AT_EPOCH": 5403,
    "BSTAR": 0.00018404397,
    "MEAN_MOTION_DOT": 0.00001986,
    "MEAN_MOTION_DDOT": 0
   }
  },
  {
   "norad": 64578,
   "name": "ICEYE-X57",
   "intl": "2025-135BC",
   "group": "sar",
   "gcat": {
    "class": "B",
    "category": "IMG-R",
    "owner": "ICEUS",
    "state": "US"
   },
   "omm": {
    "OBJECT_NAME": "ICEYE-X57",
    "OBJECT_ID": "2025-135BC",
    "EPOCH": "2026-06-17T22:23:59.833824",
    "MEAN_MOTION": 15.00867849,
    "ECCENTRICITY": 0.00019174,
    "INCLINATION": 97.7952,
    "RA_OF_ASC_NODE": 285.3971,
    "ARG_OF_PERICENTER": 61.3629,
    "MEAN_ANOMALY": 298.7788,
    "EPHEMERIS_TYPE": 0,
    "CLASSIFICATION_TYPE": "U",
    "NORAD_CAT_ID": 64578,
    "ELEMENT_SET_NO": 999,
    "REV_AT_EPOCH": 5413,
    "BSTAR": 0.00028814837,
    "MEAN_MOTION_DOT": 0.00003605,
    "MEAN_MOTION_DDOT": 0
   }
  },
  {
   "norad": 66751,
   "name": "ICEYE-X58",
   "intl": "2025-276CP",
   "group": "sar",
   "gcat": {
    "class": "B",
    "category": "IMG-R",
    "owner": "ICEYE",
    "state": "FI"
   },
   "omm": {
    "OBJECT_NAME": "ICEYE-X58",
    "OBJECT_ID": "2025-276CP",
    "EPOCH": "2026-06-17T06:04:38.048160",
    "MEAN_MOTION": 15.1774968,
    "ECCENTRICITY": 0.00028855,
    "INCLINATION": 97.4208,
    "RA_OF_ASC_NODE": 241.6989,
    "ARG_OF_PERICENTER": 6.8022,
    "MEAN_ANOMALY": 353.3251,
    "EPHEMERIS_TYPE": 0,
    "CLASSIFICATION_TYPE": "U",
    "NORAD_CAT_ID": 66751,
    "ELEMENT_SET_NO": 999,
    "REV_AT_EPOCH": 3042,
    "BSTAR": 0.00012571161,
    "MEAN_MOTION_DOT": 0.00002471,
    "MEAN_MOTION_DDOT": 0
   }
  }
 ]
}
